FM106
1 40088C 14040C   19033.69482932  .00000000  00000-0  00000-0 0 16435
2 40088  47.0634 143.8832 0020124 120.6670 239.6205 14.63980014242467
